{
  "type": "FeatureCollection",
  "features": [
    {
      "type": "Feature",
      "properties": {
        "norad_id": 35451,
        "name": "COSMOS 2251 DEB",
        "group": "cosmos-2251-debris",
        "lat": -10.896160604334126,
        "lon": 116.5916039326059,
        "alt_km": 441.35472033165115,
        "timestamp": "2025-12-04T19:33:59.995280+00:00",
        "meta_object_name": "COSMOS 2251 DEB",
        "meta_object_id": "1993-036AKV",
        "meta_epoch": "2025-12-02T09:42:30.995424",
        "meta_mean_motion": 15.34019463,
        "meta_eccentricity": 0.00397741,
        "meta_inclination": 73.9303,
        "meta_ra_of_asc_node": 124.9673,
        "meta_arg_of_pericenter": 13.4643,
        "meta_mean_anomaly": 346.7612,
        "meta_ephemeris_type": 0,
        "meta_classification_type": "U",
        "meta_norad_cat_id": 35451,
        "meta_element_set_no": 999,
        "meta_rev_at_epoch": 67247,
        "meta_bstar": 0.0016761251,
        "meta_mean_motion_dot": 0.00056987,
        "meta_mean_motion_ddot": 0,
        "tle_line1": "1 35451U 93036AKV 25336.40452541  .00056987  00000+0  16761-2 0  9990",
        "tle_line2": "2 35451  73.9303 124.9673 0039774  13.4643 346.7612 15.34019463672479"
      },
      "geometry": {
        "type": "Point",
        "coordinates": [
          116.5916039326059,
          -10.896160604334126
        ]
      }
    },
    {
      "type": "Feature",
      "properties": {
        "norad_id": 35453,
        "name": "COSMOS 2251 DEB",
        "group": "cosmos-2251-debris",
        "lat": -73.76670512671238,
        "lon": -65.0001501560282,
        "alt_km": 777.3753451361608,
        "timestamp": "2025-12-04T19:33:59.995289+00:00",
        "meta_object_name": "COSMOS 2251 DEB",
        "meta_object_id": "1993-036AKX",
        "meta_epoch": "2025-12-02T12:53:58.122528",
        "meta_mean_motion": 14.3790654,
        "meta_eccentricity": 0.00680216,
        "meta_inclination": 74.0102,
        "meta_ra_of_asc_node": 39.1945,
        "meta_arg_of_pericenter": 175.6131,
        "meta_mean_anomaly": 184.5634,
        "meta_ephemeris_type": 0,
        "meta_classification_type": "U",
        "meta_norad_cat_id": 35453,
        "meta_element_set_no": 999,
        "meta_rev_at_epoch": 86072,
        "meta_bstar": 0.00098540606,
        "meta_mean_motion_dot": 3.03e-05,
        "meta_mean_motion_ddot": 0,
        "tle_line1": "1 35453U 93036AKX 25336.53747827  .00003030  00000+0  98541-3 0  9998",
        "tle_line2": "2 35453  74.0102  39.1945 0068021 175.6131 184.5634 14.37906540860721"
      },
      "geometry": {
        "type": "Point",
        "coordinates": [
          -65.0001501560282,
          -73.76670512671238
        ]
      }
    },
    {
      "type": "Feature",
      "properties": {
        "norad_id": 35455,
        "name": "COSMOS 2251 DEB",
        "group": "cosmos-2251-debris",
        "lat": 22.605069752955178,
        "lon": 122.83073519288064,
        "alt_km": 740.2859601236823,
        "timestamp": "2025-12-04T19:33:59.995298+00:00",
        "meta_object_name": "COSMOS 2251 DEB",
        "meta_object_id": "1993-036AKZ",
        "meta_epoch": "2025-12-03T16:20:58.881984",
        "meta_mean_motion": 14.49223427,
        "meta_eccentricity": 0.00987252,
        "meta_inclination": 74.028,
        "meta_ra_of_asc_node": 311.8069,
        "meta_arg_of_pericenter": 57.6143,
        "meta_mean_anomaly": 303.4522,
        "meta_ephemeris_type": 0,
        "meta_classification_type": "U",
        "meta_norad_cat_id": 35455,
        "meta_element_set_no": 999,
        "meta_rev_at_epoch": 86412,
        "meta_bstar": 0.0020359442,
        "meta_mean_motion_dot": 8.236e-05,
        "meta_mean_motion_ddot": 0,
        "tle_line1": "1 35455U 93036AKZ 25337.68123706  .00008236  00000+0  20359-2 0  9995",
        "tle_line2": "2 35455  74.0280 311.8069 0098725  57.6143 303.4522 14.49223427864128"
      },
      "geometry": {
        "type": "Point",
        "coordinates": [
          122.83073519288064,
          22.605069752955178
        ]
      }
    },
    {
      "type": "Feature",
      "properties": {
        "norad_id": 35456,
        "name": "COSMOS 2251 DEB",
        "group": "cosmos-2251-debris",
        "lat": -50.85379519952258,
        "lon": 112.19100990414218,
        "alt_km": 634.2408141753667,
        "timestamp": "2025-12-04T19:33:59.995307+00:00",
        "meta_object_name": "COSMOS 2251 DEB",
        "meta_object_id": "1993-036ALA",
        "meta_epoch": "2025-12-03T02:57:04.162176",
        "meta_mean_motion": 14.69114044,
        "meta_eccentricity": 0.0065078,
        "meta_inclination": 73.9488,
        "meta_ra_of_asc_node": 136.1966,
        "meta_arg_of_pericenter": 348.2042,
        "meta_mean_anomaly": 11.7599,
        "meta_ephemeris_type": 0,
        "meta_classification_type": "U",
        "meta_norad_cat_id": 35456,
        "meta_element_set_no": 999,
        "meta_rev_at_epoch": 65734,
        "meta_bstar": 0.0020335199,
        "meta_mean_motion_dot": 0.00012335,
        "meta_mean_motion_ddot": 0,
        "tle_line1": "1 35456U 93036ALA 25337.12296484  .00012335  00000+0  20335-2 0  9998",
        "tle_line2": "2 35456  73.9488 136.1966 0065078 348.2042  11.7599 14.69114044657346"
      },
      "geometry": {
        "type": "Point",
        "coordinates": [
          112.19100990414218,
          -50.85379519952258
        ]
      }
    },
    {
      "type": "Feature",
      "properties": {
        "norad_id": 35459,
        "name": "COSMOS 2251 DEB",
        "group": "cosmos-2251-debris",
        "lat": 22.375327961049766,
        "lon": 15.172088012080183,
        "alt_km": 754.3809566984719,
        "timestamp": "2025-12-04T19:33:59.995315+00:00",
        "meta_object_name": "COSMOS 2251 DEB",
        "meta_object_id": "1993-036ALD",
        "meta_epoch": "2025-12-01T22:21:32.007744",
        "meta_mean_motion": 14.37436198,
        "meta_eccentricity": 0.00166822,
        "meta_inclination": 73.8706,
        "meta_ra_of_asc_node": 207.3714,
        "meta_arg_of_pericenter": 158.6603,
        "meta_mean_anomaly": 201.5249,
        "meta_ephemeris_type": 0,
        "meta_classification_type": "U",
        "meta_norad_cat_id": 35459,
        "meta_element_set_no": 999,
        "meta_rev_at_epoch": 58206,
        "meta_bstar": 0.00027997141,
        "meta_mean_motion_dot": 8.11e-06,
        "meta_mean_motion_ddot": 0,
        "tle_line1": "1 35459U 93036ALD 25335.93162046  .00000811  00000+0  27997-3 0  9992",
        "tle_line2": "2 35459  73.8706 207.3714 0016682 158.6603 201.5249 14.37436198582065"
      },
      "geometry": {
        "type": "Point",
        "coordinates": [
          15.172088012080183,
          22.375327961049766
        ]
      }
    },
    {
      "type": "Feature",
      "properties": {
        "norad_id": 35462,
        "name": "COSMOS 2251 DEB",
        "group": "cosmos-2251-debris",
        "lat": 73.15306524155706,
        "lon": 32.11570124147506,
        "alt_km": 831.5251262349602,
        "timestamp": "2025-12-04T19:33:59.995324+00:00",
        "meta_object_name": "COSMOS 2251 DEB",
        "meta_object_id": "1993-036ALG",
        "meta_epoch": "2025-12-01T03:45:45.448128",
        "meta_mean_motion": 14.29124029,
        "meta_eccentricity": 0.00870444,
        "meta_inclination": 74.036,
        "meta_ra_of_asc_node": 289.718,
        "meta_arg_of_pericenter": 327.319,
        "meta_mean_anomaly": 32.2589,
        "meta_ephemeris_type": 0,
        "meta_classification_type": "U",
        "meta_norad_cat_id": 35462,
        "meta_element_set_no": 999,
        "meta_rev_at_epoch": 66215,
        "meta_bstar": 0.0017949723,
        "meta_mean_motion_dot": 4.718e-05,
        "meta_mean_motion_ddot": 0,
        "tle_line1": "1 35462U 93036ALG 25335.15677602  .00004718  00000+0  17950-2 0  9996",
        "tle_line2": "2 35462  74.0360 289.7180 0087044 327.3190  32.2589 14.29124029662158"
      },
      "geometry": {
        "type": "Point",
        "coordinates": [
          32.11570124147506,
          73.15306524155706
        ]
      }
    },
    {
      "type": "Feature",
      "properties": {
        "norad_id": 35465,
        "name": "COSMOS 2251 DEB",
        "group": "cosmos-2251-debris",
        "lat": 73.30960464959179,
        "lon": -75.05596460747476,
        "alt_km": 722.3432595965905,
        "timestamp": "2025-12-04T19:33:59.995333+00:00",
        "meta_object_name": "COSMOS 2251 DEB",
        "meta_object_id": "1993-036ALK",
        "meta_epoch": "2025-11-29T22:48:34.232544",
        "meta_mean_motion": 14.44263019,
        "meta_eccentricity": 0.00634289,
        "meta_inclination": 73.9997,
        "meta_ra_of_asc_node": 220.8763,
        "meta_arg_of_pericenter": 24.0529,
        "meta_mean_anomaly": 336.3567,
        "meta_ephemeris_type": 0,
        "meta_classification_type": "U",
        "meta_norad_cat_id": 35465,
        "meta_element_set_no": 999,
        "meta_rev_at_epoch": 87057,
        "meta_bstar": 0.00049692277,
        "meta_mean_motion_dot": 1.723e-05,
        "meta_mean_motion_ddot": 0,
        "tle_line1": "1 35465U 93036ALK 25333.95039621  .00001723  00000+0  49692-3 0  9990",
        "tle_line2": "2 35465  73.9997 220.8763 0063428  24.0529 336.3567 14.44263019870576"
      },
      "geometry": {
        "type": "Point",
        "coordinates": [
          -75.05596460747476,
          73.30960464959179
        ]
      }
    }
  ]
}